{"type": "FeatureCollection", "features": [{"type": "Feature", "properties": {"nome": "EFC_recorte", "buffer_km": 20}, "geometry": {"type": "Polygon", "coordinates": [[[-50.00269412491949, -5.816942970477532], [-49.99801817779839, -5.816995391457636], [-49.99155146921403, -5.810674939788665], [-49.97974679965673, -5.800221711190236], [-49.96526579364068, -5.784512753877467], [-49.96275991326683, -5.781130648955386], [-49.95595243302664, -5.7653850907403825], [-49.94487928980059, -5.743899301209538], [-49.928806653043154, -5.717304786803852], [-49.917779099971575, -5.701130648184461], [-49.90504298897831, -5.686250629767351], [-49.89075055313465, -5.672842698503256], [-49.86305327720395, -5.649568813968891], [-49.85284697610337, -5.638421498664971], [-49.84006029348029, -5.625790394301207], [-49.826066716849695, -5.614497015230946], [-49.811006965578514, -5.604655008970393], [-49.7950324804829, -5.596363422722949], [-49.77830390093972, -5.58970570439514], [-49.76098944949746, -5.5847488608117235], [-49.75262119023163, -5.583235324434532], [-49.75202962955217, -5.582890282438596], [-49.73590858460976, -5.575506836753041], [-49.71913430949112, -5.569742211324439], [-49.710888452514915, -5.567355002431109], [-49.704250253000254, -5.560738162535331], [-49.690750054394755, -5.549675854749023], [-49.67623329720763, -5.539972041462602], [-49.6608375033811, -5.531718719388942], [-49.644708522256224, -5.524994137295332], [-49.62799914889476, -5.519862052443158], [-49.61086767660208, -5.516371124655291], [-49.60000604476529, -5.515236533106131], [-49.58007510281046, -5.5003835184350685], [-49.56592863216437, -5.490850921516742], [-49.550936553796106, -5.482698707975848], [-49.53523441175526, -5.476000640447491], [-49.51896416980876, -5.470817326347445], [-49.502272927940155, -5.467195668179415], [-49.48531159241206, -5.465168438099383], [-49.468233511415924, -5.464753980629262], [-49.41503366280274, -5.465982072216568], [-49.39613929854404, -5.467413231049869], [-49.39115789778593, -5.4683230691163525], [-49.39068887223355, -5.467830300638751], [-49.38950613949589, -5.4665994861803], [-49.37501501140623, -5.451662096576115], [-49.372586417385165, -5.44317908276816], [-49.36783889001268, -5.4289025178022845], [-49.361903383161504, -5.415073132528762], [-49.347650872800635, -5.385385166612215], [-49.339806700336204, -5.3708163713256205], [-49.330645178547464, -5.35703040011631], [-49.32024454708192, -5.344145043250709], [-49.308693627617714, -5.332270402907729], [-49.29609106532405, -5.321507950853321], [-49.28254448642874, -5.311949659793457], [-49.26816957908735, -5.303677215891555], [-49.259675548319855, -5.299781867740216], [-49.2596140908227, -5.298710521221376], [-49.25670394088871, -5.280668074571786], [-49.25196054657711, -5.263014852188987], [-49.24543339931638, -5.245935086120815], [-49.23719060178167, -5.229607038347788], [-49.22731815732797, -5.214201138473046], [-49.215919072651886, -5.1998782027081845], [-49.2031122830447, -5.186787752855428], [-49.16557903113896, -5.152151338814913], [-49.15104369796442, -5.140089895041743], [-49.13531547088471, -5.129617477093702], [-49.118568757525416, -5.120850293050513], [-49.03070856935592, -5.0805822851420075], [-49.01478410517523, -5.074183281711119], [-48.998319075652226, -5.069327753533846], [-48.98146388479553, -5.066060089929836], [-48.96437250064196, -5.064410164464143], [-48.94720104879613, -5.064393061212112], [-48.844402359445986, -5.069189381845013], [-48.73520875840701, -5.0722430588269924], [-48.68977953615576, -5.0732861910850025], [-48.684460484838, -5.071610821423542], [-48.653585930282304, -5.06000666707264], [-48.62397137850233, -5.038326974210558], [-48.62150521683659, -5.036553388226509], [-48.59397643201733, -5.017106226289351], [-48.579847820673635, -5.008082452766488], [-48.564935591658895, -5.000411285337554], [-48.54936987261845, -4.9941597131814985], [-48.53328649370648, -4.989382330372448], [-48.516825802299955, -4.986120858093112], [-48.46615506819453, -4.97851210633876], [-48.462383082229834, -4.977986371935446], [-48.407928415760544, -4.970981954558975], [-48.384839226474, -4.96950845582885], [-48.31771296587398, -4.969539354481342], [-48.298413986532815, -4.9705839140807315], [-48.279339307320186, -4.973687727511661], [-48.24172594415834, -4.981898766740747], [-48.19231400315701, -4.985878670123851], [-48.13987542881104, -4.983523391331663], [-48.12030318462333, -4.983707532453865], [-48.10086719598781, -4.986011630018232], [-48.06930471589246, -4.991504229608405], [-48.05216986123273, -4.987591202734462], [-48.034758693878615, -4.984504625165891], [-48.01712727049566, -4.983138266710822], [-47.99944642128656, -4.983505376706548], [-47.981887455338914, -4.985602395344487], [-47.98116980493665, -4.985760605672134], [-47.963696331579975, -4.9815785035774685], [-47.94477338394681, -4.978107479941834], [-47.93938390039013, -4.973906112512617], [-47.92401808616818, -4.963421348077303], [-47.908736063235104, -4.9540742404838225], [-47.892594883032736, -4.946291295567643], [-47.87575534639718, -4.940150104725938], [-47.85838521129513, -4.935711893849153], [-47.840657521594046, -4.9330209116068895], [-47.82274888317345, -4.932103987320141], [-47.804837704550906, -4.932970262871582], [-47.787102419549846, -4.935611101353656], [-47.7697197097153, -4.940000173374456], [-47.76108660171272, -4.943120922799584], [-47.7442925328738, -4.939477007364744], [-47.74096963380183, -4.939092014275405], [-47.73652901070909, -4.937003231905195], [-47.72181400177505, -4.931589044629268], [-47.70668105999514, -4.927474252123355], [-47.66516420310647, -4.918104504241001], [-47.64809654628989, -4.915106468579431], [-47.642051966532065, -4.914635705884032], [-47.63079924992233, -4.892656691052299], [-47.62280138925413, -4.878633777845258], [-47.61356919635893, -4.86538478240056], [-47.60317761967107, -4.853017311733086], [-47.55675519026219, -4.8025688145507015], [-47.54576970840109, -4.791798363346185], [-47.54001598092961, -4.777355667606696], [-47.52853452705624, -4.7520631207948965], [-47.52217864664354, -4.739416753801523], [-47.508456442275865, -4.714611061630624], [-47.498532397831106, -4.698700698691322], [-47.48699468995108, -4.683910485276047], [-47.476623571377026, -4.673154793276739], [-47.47140795962691, -4.661330573854681], [-47.451556714090984, -4.621951777451071], [-47.44169949785113, -4.6048223300449855], [-47.43001008985845, -4.588878439924109], [-47.416630627109534, -4.57431406331281], [-47.39046449036641, -4.548808149324379], [-47.366127653965336, -4.5200519515719], [-47.35466391739045, -4.507728951779324], [-47.34553635487009, -4.499599105131487], [-47.34182719335754, -4.493714999382359], [-47.33097752316324, -4.479767890108803], [-47.31880362337314, -4.4669528226269115], [-47.305423705442934, -4.455394297424215], [-47.290967691550655, -4.445204612785229], [-47.27557595302145, -4.436482772002613], [-47.25939794728876, -4.429313519820418], [-47.229706086349005, -4.417866787691482], [-47.227042461978535, -4.415792562054391], [-47.21189239664042, -4.405200236800153], [-47.19572997381224, -4.396217613985549], [-47.18633113954425, -4.3921948391654615], [-47.18001270814622, -4.385340321846398], [-47.16713434319037, -4.372707463344726], [-47.153048688424576, -4.361427854638149], [-47.137898166592315, -4.35161560984475], [-47.12183596751118, -4.3433700019179176], [-47.10502449914139, -4.336774456565777], [-47.08763374544796, -4.331895706674822], [-47.06983954766035, -4.328783115862178], [-47.04451247522019, -4.32565184823382], [-47.04256491250943, -4.32504307432863], [-47.03404181768333, -4.321642622885365], [-47.033000332570424, -4.321205747041479], [-47.03137359230952, -4.319374586322855], [-47.01937231228284, -4.308132206923159], [-47.00638921664822, -4.298032568696197], [-46.99253336298235, -4.289160555619076], [-46.9798378241516, -4.282583673372982], [-46.97032938807125, -4.271709991238582], [-46.957664428231325, -4.259785545785746], [-46.94390108896136, -4.249139981842883], [-46.9291687302368, -4.2398734110979985], [-46.913605819730805, -4.232072980255007], [-46.897358631373095, -4.2258120501002], [-46.880579870538895, -4.221149504359539], [-46.847929489800094, -4.213756656978205], [-46.846990394034535, -4.21354665778384], [-46.814301461505096, -4.206328425164428], [-46.79485746260788, -4.20313867675381], [-46.78541292806575, -4.202636193247398], [-46.78380607827111, -4.201727557362065], [-46.75913686102817, -4.189252292492605], [-46.745152079507434, -4.182914379351569], [-46.73067557698133, -4.177790993069192], [-46.69308291511572, -4.166265678522541], [-46.68583288353685, -4.160124677353142], [-46.67949308337099, -4.148904597631886], [-46.668845015758684, -4.133896670574075], [-46.656711162858045, -4.12005570446184], [-46.6432192581232, -4.107527469005927], [-46.62794816881258, -4.094740833615579], [-46.624952667500686, -4.091269720567709], [-46.619916499148495, -4.085675656723235], [-46.60720577889864, -4.07213901410188], [-46.59548173605113, -4.060741345857622], [-46.58969559632241, -4.056060765714437], [-46.58388182834488, -4.047682882487829], [-46.5753207355115, -4.036334604649403], [-46.56588566294058, -4.025698048062176], [-46.53541319161588, -3.9939715297957084], [-46.5204579791215, -3.9802461329285714], [-46.517232144856784, -3.974426529334474], [-46.50803296458922, -3.9609059589356086], [-46.49763764771293, -3.9482772067210883], [-46.48613260289649, -3.936645289940766], [-46.47361346316553, -3.926106940449305], [-46.44632593499817, -3.905184348528002], [-46.43404467827287, -3.8965575774467176], [-46.421084095559024, -3.8889843213947297], [-46.41274102635872, -3.8845656946871046], [-46.409795161834815, -3.879473766976546], [-46.3934969333727, -3.8548782122209992], [-46.38280873871467, -3.840385763026759], [-46.37071824771467, -3.827035172641507], [-46.36961208840229, -3.826036302716863], [-46.36558065587685, -3.812774030709528], [-46.358897060372044, -3.796638261097167], [-46.335384004327715, -3.7468833394546834], [-46.33088152742184, -3.738003168207256], [-46.30445743292199, -3.6892910829276744], [-46.296161687985716, -3.675511404795063], [-46.28666249295323, -3.6625284312368533], [-46.276036210681255, -3.6504465683513363], [-46.25367853348609, -3.627214875513573], [-46.23900369209278, -3.613578131557804], [-46.22289764427974, -3.60165812138481], [-46.179782658932815, -3.573327372943548], [-46.16423309532695, -3.564192262638373], [-46.14784389497005, -3.5566597853736566], [-46.106276687507865, -3.540026258294971], [-46.09023330839486, -3.5344692996548135], [-46.07373593181794, -3.5304490046723727], [-46.02301985918905, -3.52059856716414], [-46.00655168338765, -3.5181839960078816], [-45.989930301392775, -3.5173009700495164], [-45.97329837656542, -3.517957072761644], [-45.96950984188425, -3.518459831220376], [-45.96839677751323, -3.517889045123605], [-45.95178899358106, -3.51040917818892], [-45.93450760179759, -3.504646658590283], [-45.91673033607886, -3.50066078437272], [-45.88877003094518, -3.4958633938544614], [-45.85034183294386, -3.482893150564472], [-45.830515562676226, -3.4774414779654363], [-45.810195028344395, -3.474286985726744], [-45.74827406448844, -3.4682713092990944], [-45.73212687317543, -3.467432268813746], [-45.715969500332086, -3.4680456875616072], [-45.69993281065138, -3.4701065944163774], [-45.68414669136758, -3.4735982879181515], [-45.66873900025023, -3.4784924718295525], [-45.645154391080474, -3.4871687122453325], [-45.60212883361177, -3.4978751456206623], [-45.58430909895738, -3.503303079157765], [-45.56714834784666, -3.510543754320316], [-45.550831121304455, -3.519519266099491], [-45.53553288937219, -3.530133046075934], [-45.53337196435836, -3.5319913283535067], [-45.506790114853025, -3.5381984782038067], [-45.5051562445359, -3.538588053213895], [-45.504698398012586, -3.538699481516765], [-45.49547691750139, -3.534112743723747], [-45.47677117218627, -3.5272684552125977], [-45.457421193205185, -3.5225333981444718], [-45.3845130108215, -3.5089185521741584], [-45.31317298649478, -3.486890710049989], [-45.24943126891553, -3.4573474555437325], [-45.244644092941925, -3.455212836756447], [-45.161208463265105, -3.419456340160797], [-45.14474031739567, -3.413332416763822], [-45.12775159371311, -3.4088438081322034], [-45.11040483623481, -3.406033483360965], [-45.092866014559384, -3.4049283457458963], [-45.0753029359094, -3.405538974850477], [-45.057883639592305, -3.4078595250733863], [-45.02522260234385, -3.4138460883261668], [-45.009792314535154, -3.404125105877715], [-45.00842038578237, -3.403269391916221], [-44.97032227488145, -3.3797435370186726], [-44.95528755171289, -3.3714246169657955], [-44.93952523781071, -3.364578069681481], [-44.923179625221294, -3.3592666018527813], [-44.90640034564877, -3.3555388613950026], [-44.88934100069005, -3.3534289912428994], [-44.872157755728566, -3.3529563161716913], [-44.85500791035843, -3.35412516553425], [-44.83804845842579, -3.356924833548229], [-44.8214346508691, -3.3613296774991896], [-44.778654397776165, -3.374889818283995], [-44.76260515327006, -3.3808309702384056], [-44.75641756138953, -3.383817888877419], [-44.75357450015042, -3.378871178853882], [-44.74329420394543, -3.3629873974890327], [-44.73139571651132, -3.348272239354052], [-44.69597327149275, -3.308904820924087], [-44.66289065202903, -3.2654400739409852], [-44.63552179301669, -3.2256103927701854], [-44.62989897945488, -3.2178773027446925], [-44.559315655835846, -3.12604731984994], [-44.554053252554105, -3.119521861061485], [-44.52144845943398, -3.0809692737633214], [-44.52322234226965, -3.0721051770111325], [-44.5249634502988, -3.0551729609547347], [-44.52508978317185, -3.038151915525987], [-44.523439074402916, -2.9970086869475647], [-44.53092412574701, -2.9484858233230296], [-44.55055104539947, -2.862417385525459], [-44.55351579791773, -2.8458696169232445], [-44.55491706334473, -2.8291171233329853], [-44.55474254330024, -2.8123069308353643], [-44.55299376948112, -2.7955865783099876], [-44.54968609021822, -2.7791028224050907], [-44.52923206822717, -2.6972706164514872], [-44.5251663985467, -2.6834050400056078], [-44.52402676177885, -2.6800286496660384], [-44.518060382738135, -2.66470843335329], [-44.51283030915896, -2.6542330494262596], [-44.5181754648734, -2.6422102434146537], [-44.523696551947914, -2.625584428791384], [-44.52756886933493, -2.608499920000182], [-44.529755529686916, -2.5911194486686266], [-44.53023570307381, -2.5736085724137894], [-44.52900481540707, -2.5561340979576266], [-44.526074592012016, -2.538862492076962], [-44.52405091171232, -2.529680023549797], [-44.51942195767002, -2.5126918680109376], [-44.513149274400604, -2.496238306165331], [-44.50529321716131, -2.4804776772744432], [-44.49592937630719, -2.465561657520347], [-44.48514784996675, -2.451633799474417], [-44.47305237712501, -2.4388281496327164], [-44.45975933945522, -2.4272679573658933], [-44.44539664150369, -2.4170644877518974], [-44.43010248000253, -2.4083159497588515], [-44.414024014151714, -2.4011065501327478], [-44.39731594966496, -2.3955056821311764], [-44.380139050203766, -2.3915672569420874], [-44.362658590522315, -2.3893291842481514], [-44.345042766206966, -2.388813006956262], [-44.32746107531176, -2.390023693621995], [-44.310082687461694, -2.3929495905750016], [-44.29307481611614, -2.397562534207959], [-44.27660110965422, -2.4038181223439605], [-44.25066809727344, -2.415149430781734], [-44.23494113770678, -2.4229571496691715], [-44.220052257624396, -2.4322615666946334], [-44.20614371218461, -2.442973753058057], [-44.19334838998104, -2.4549913269709753], [-44.181788543364135, -2.468199433033591], [-44.171574620386544, -2.482471840853287], [-44.16280420953191, -2.4976721523657806], [-44.15556110730999, -2.513655106279222], [-44.14991451762649, -2.5302679671328323], [-44.13917958831001, -2.567781091333812], [-44.13664516527452, -2.576152849762547], [-44.135960548724874, -2.57868228945604], [-44.13433780630505, -2.58147486519954], [-44.12703948609617, -2.597453925564618], [-44.12133953994245, -2.6140688865737705], [-44.11729255338278, -2.631160611692657], [-44.11493728238721, -2.648565404352482], [-44.114515438857666, -2.6534868278275394], [-44.11387393632526, -2.6709973650951317], [-44.114944918686, -2.688486684909531], [-44.117718176946894, -2.70578807556752], [-44.12216727540255, -2.722736623860372], [-44.12824980362994, -2.739170786776501], [-44.13260377984089, -2.749373153396179], [-44.133905713324246, -2.7523489310333495], [-44.13875601605159, -2.763167172150353], [-44.14669115683566, -2.778776481405056], [-44.15611125122585, -2.7935390503324196], [-44.16241467075501, -2.802428670290421], [-44.16780673478216, -2.809642272860028], [-44.17490017606597, -2.818651399293723], [-44.17506799118868, -2.8188642036858957], [-44.18144335161714, -2.8269361532692887], [-44.18829085748109, -2.834934341076318], [-44.17915081417378, -2.875017257259941], [-44.17675983339418, -2.8875427232709], [-44.16565577455891, -2.959529476847327], [-44.16384683802748, -2.976732814405082], [-44.16370516486319, -2.99402989262519], [-44.16502077826823, -3.0268212246785433], [-44.154807818330845, -3.0676655625119653], [-44.15146543050447, -3.0843710211322453], [-44.14972490125557, -3.101317464052283], [-44.149601924491314, -3.118352080185718], [-44.15109760906174, -3.1353212707051634], [-44.154198468761535, -3.1520720341437256], [-44.15887654393165, -3.1684533458404407], [-44.165089653564436, -3.1843175192910356], [-44.17278177563901, -3.199521537138878], [-44.20803994307363, -3.2616864356808817], [-44.21693866703276, -3.2758018434348495], [-44.22711214276023, -3.2890308524809315], [-44.27681528832979, -3.3477883404664803], [-44.341929134875336, -3.43248396071028], [-44.36905489953017, -3.4719515364248514], [-44.37415644377131, -3.479001286461597], [-44.41433813241919, -3.5317810309420774], [-44.42372980686707, -3.54311941013988], [-44.45136917332259, -3.573829538813797], [-44.46480971731532, -3.597209989293805], [-44.47293123672209, -3.610046095062483], [-44.48211159026364, -3.622150397945687], [-44.49228497212662, -3.6334361633601238], [-44.53964388811608, -3.68169622591431], [-44.554737598922365, -3.6954214844854714], [-44.57129452144462, -3.7073487098151814], [-44.601738947050244, -3.726753157358353], [-44.615876009491515, -3.73488613283496], [-44.630694255759686, -3.7417055258178413], [-44.6460714431923, -3.7471551110496786], [-44.66188071815912, -3.7511899582204413], [-44.6779916625372, -3.7537768017212034], [-44.69427136959118, -3.754894314381561], [-44.7501222124047, -3.756190571540307], [-44.7670487145295, -3.755787122543336], [-44.783861993758194, -3.753795513956172], [-44.80041273042051, -3.750233422594058], [-44.84218616185434, -3.739163806139802], [-44.85941460053706, -3.733481996831689], [-44.86244539657134, -3.73539070205917], [-44.879540475160084, -3.7448987796868596], [-44.897570536764924, -3.752494880561394], [-44.916321630435704, -3.7580889173724534], [-44.97458842046168, -3.772072046492113], [-44.993021631450176, -3.7754916761203545], [-45.01171162050223, -3.776975834000914], [-45.03045484684688, -3.7765083670442636], [-45.04904718993969, -3.7740943629984436], [-45.069359461218305, -3.770372724727216], [-45.10047943839518, -3.78370426607314], [-45.17283468740047, -3.817227541731709], [-45.19540355383554, -3.8258934284374337], [-45.28820600351517, -3.8545373026033705], [-45.30826185821151, -3.8594868719610966], [-45.36167650514882, -3.8694575877610276], [-45.373318491224026, -3.8760741978664934], [-45.389879367222655, -3.8843880330078733], [-45.40721079219816, -3.890954844258867], [-45.42512822347893, -3.8957047504947955], [-45.443440878677386, -3.8985872063856957], [-45.46195376711507, -3.899571539207878], [-45.51616620758077, -3.8996594824249184], [-45.53774735364167, -3.898396877987919], [-45.559020267508814, -3.8945573226988373], [-45.58946409222036, -3.887151019713138], [-45.66732264846973, -3.8689772522486883], [-45.685629413184564, -3.8636675709135426], [-45.703269194318544, -3.8564522933160035], [-45.72004336811501, -3.8474126161725595], [-45.735763057547146, -3.8366502700855425], [-45.73982568601283, -3.8331833356978176], [-45.74156653261025, -3.8327503100445806], [-45.753532797643125, -3.829073769142292], [-45.75481719900748, -3.8291985001626716], [-45.78695649635334, -3.8400419380560216], [-45.800379407275535, -3.8439964675018765], [-45.81407010910068, -3.846896477127848], [-45.828698555066424, -3.8494054218809333], [-45.83440417585934, -3.852330204659142], [-45.861062688684875, -3.866563053386259], [-45.87652371903589, -3.8738946734444326], [-45.89261393387774, -3.8797248544165166], [-45.90918725873928, -3.8840006986469024], [-45.92609323325135, -3.8866834118349285], [-45.94317837709618, -3.8877486543187745], [-45.96028758337333, -3.8871867614587354], [-45.97726552673233, -3.885002831142765], [-45.993654577843294, -3.8812855157552186], [-45.99731547878032, -3.8827499074229204], [-46.00275277606802, -3.8863215325186395], [-46.012507720247804, -3.9043007108366674], [-46.02261348266756, -3.925681470283328], [-46.02367426373099, -3.9327635286153657], [-46.02691270044676, -3.9491305871530913], [-46.03407777734287, -3.9781579155779303], [-46.038872285016176, -3.994281089220083], [-46.045160578916565, -4.0098846779998265], [-46.05288729228562, -4.024831328826782], [-46.06198439346335, -4.0389894789938126], [-46.07237178488889, -4.052234513204603], [-46.08395800833831, -4.064449859242406], [-46.09664105018994, -4.075528012687611], [-46.110309239627256, -4.085371481722399], [-46.113757808294366, -4.087393734241649], [-46.12101384661278, -4.100398833319488], [-46.13011476882312, -4.113728688807899], [-46.1403803241545, -4.1261882584496306], [-46.151727371285745, -4.137676674030316], [-46.164064009831606, -4.148100933848624], [-46.19589181326856, -4.1726284949621455], [-46.208346129412945, -4.181410004377157], [-46.22150238007396, -4.189106243483675], [-46.225997645516856, -4.191486119742911], [-46.23723889554976, -4.207157501244819], [-46.25010912331711, -4.221540095814593], [-46.2644541918334, -4.234460300667913], [-46.28380129179402, -4.250085751151977], [-46.29655562299409, -4.263360832686973], [-46.301802809638616, -4.270920182689646], [-46.312092871756846, -4.28434440455596], [-46.32581258836841, -4.300593181961388], [-46.34033628430712, -4.315873236849021], [-46.35574989120798, -4.3286778694844], [-46.36511638665686, -4.339528169143819], [-46.375029380506035, -4.350113971135705], [-46.38284717301899, -4.3572142489517], [-46.38361758419594, -4.358611943551679], [-46.391978085691484, -4.372292359789398], [-46.40153089402738, -4.385173100982046], [-46.41219961279905, -4.397151199523593], [-46.42389892136289, -4.408130908430202], [-46.44804279267804, -4.428839382180155], [-46.44891055496276, -4.429578891277686], [-46.482914592887276, -4.458370743821961], [-46.49810901043731, -4.469907916954157], [-46.514446045018495, -4.479771659659448], [-46.531741069208415, -4.487850569534762], [-46.56355396851133, -4.500702223193439], [-46.578237788541024, -4.505907017942769], [-46.60809085583014, -4.51505539202484], [-46.615110559753425, -4.520434733585635], [-46.627126885247264, -4.52888622067387], [-46.63979631989529, -4.536329624233543], [-46.653033978893085, -4.542715105414881], [-46.668636184202484, -4.549470149600968], [-46.68616609294337, -4.556000488322403], [-46.704282342596315, -4.560677653115088], [-46.722788378425044, -4.5634509349440995], [-46.74148341665466, -4.564290266849592], [-46.74959237180945, -4.563811176086202], [-46.761101594371134, -4.572857928418346], [-46.77524460826004, -4.581972907672501], [-46.79018171394808, -4.5897276622312315], [-46.79043096638531, -4.589842596929747], [-46.79463706374594, -4.59450310310283], [-46.808939683677494, -4.607292470285581], [-46.824530749054055, -4.618486001148743], [-46.84123193552541, -4.627955746326764], [-46.85442927577696, -4.634533893152805], [-46.86512135761698, -4.639433760934533], [-46.89616771640714, -4.652451115974396], [-46.89909272089202, -4.653647440398457], [-46.915494302246856, -4.660188173437223], [-46.928493662484534, -4.664803202795611], [-46.95003861365929, -4.671534607924208], [-46.95125699499915, -4.6732037297694955], [-46.96267882493652, -4.68605597360492], [-46.975283140746534, -4.697758703336045], [-46.98895406859669, -4.708204393410022], [-47.00356592909054, -4.717297072827499], [-47.01898439266187, -4.724953205223471], [-47.03506771449151, -4.731102454770492], [-47.05166803759399, -4.7356883309444155], [-47.0658012255807, -4.738171262225262], [-47.06717072428986, -4.738777449681147], [-47.076462354166445, -4.748856642715158], [-47.08917530251871, -4.760252461889103], [-47.10291776734122, -4.770392102687464], [-47.1130555120058, -4.776476957861286], [-47.11769364020859, -4.78195542365056], [-47.11755712882697, -4.784959220136181], [-47.11858063936203, -4.803087523709014], [-47.12144146812157, -4.8210188222348584], [-47.126110190870605, -4.83856870949593], [-47.13253878879827, -4.85555671599427], [-47.14066114240153, -4.871808163754221], [-47.15039371153838, -4.8871559610244955], [-47.16807610447429, -4.9121374281732315], [-47.17902165752287, -4.926081907307583], [-47.191296129920396, -4.938880784643462], [-47.20477947459384, -4.950408953306379], [-47.20911134317715, -4.953427157027593], [-47.21194978512018, -4.960351256771315], [-47.21996965131414, -4.975558858708635], [-47.22941597067431, -4.989930150301987], [-47.24020172825543, -5.00333280824422], [-47.25907061669266, -5.024601496958356], [-47.27280947127453, -5.038484026910255], [-47.28798256950408, -5.050795432513815], [-47.30440988888418, -5.061389736664716], [-47.31079805440582, -5.065033789958314], [-47.32181699330882, -5.077003965013736], [-47.3281485059229, -5.089367407535353], [-47.330384418524055, -5.098540755515922], [-47.33553002155148, -5.115808807265466], [-47.342392427220865, -5.132473706601204], [-47.35090210654933, -5.1483666591718675], [-47.360972840596055, -5.163326702055181], [-47.372502594021114, -5.177202332100565], [-47.385374548894006, -5.1898530380909556], [-47.39945828827745, -5.2011507213167585], [-47.440990479791516, -5.23116341494247], [-47.45598936692966, -5.240903902089266], [-47.471887418237955, -5.249109089751862], [-47.51263253092176, -5.267634217245804], [-47.53058379559231, -5.274662298572032], [-47.5491882605357, -5.279733466493041], [-47.56823148109198, -5.282789316585755], [-47.58749395527771, -5.2837946554831525], [-47.61238498517943, -5.2837614361017256], [-47.628194092698415, -5.2830108138657925], [-47.63087229582365, -5.284245093189817], [-47.6330389052059, -5.284986127834415], [-47.63590915926353, -5.286997480198686], [-47.65106077592302, -5.2955603986201085], [-47.66697407531431, -5.3026216965324595], [-47.68349942158262, -5.3081150275274345], [-47.700481423677154, -5.311988779122125], [-47.71776039652344, -5.314206556431193], [-47.73517386257311, -5.314747523195528], [-47.74185310081234, -5.314309165031506], [-47.75171290631874, -5.315866285968855], [-47.769223839256014, -5.3169070317486655], [-47.78675323783878, -5.3162424536587185], [-47.804610538853844, -5.314693489269077], [-47.805047662996756, -5.314874624824081], [-47.82137846828316, -5.319890491952549], [-47.83811403454097, -5.323338640359785], [-47.862347770611954, -5.327145234225321], [-47.86254490129788, -5.327269904038845], [-47.87716951474965, -5.334746280691048], [-47.89241926521574, -5.340860282649465], [-47.90816647044551, -5.345560760266114], [-47.924279283127134, -5.348808390508893], [-47.94062279481137, -5.350576005063202], [-47.96982565989328, -5.352393715078084], [-47.989036415814276, -5.3525648017662135], [-48.008155690130444, -5.350692567577885], [-48.021944206436295, -5.347837858829699], [-48.02435916118913, -5.348389041490608], [-48.04196604704737, -5.351498593882028], [-48.059796185809134, -5.352850134261988], [-48.077672950677645, -5.352430285820488], [-48.09541925297411, -5.350243203978562], [-48.14333224280762, -5.341909939675203], [-48.18742803474679, -5.343889383711541], [-48.20999872001639, -5.343489098137239], [-48.282793370817, -5.337629122112681], [-48.30677133854756, -5.334064931488586], [-48.337290772208966, -5.327406205938546], [-48.37341293970581, -5.327389588025682], [-48.4144819378908, -5.33266927316824], [-48.420614772375, -5.333589674930939], [-48.460678898857, -5.36290517967198], [-48.47427370176779, -5.371934082272873], [-48.488636288454224, -5.379695655303884], [-48.50364782978895, -5.386125732652783], [-48.5621935751895, -5.40811841470313], [-48.571451344805766, -5.411311752790499], [-48.609906784126736, -5.423417573705625], [-48.62899910708207, -5.428298732791239], [-48.64851365790181, -5.431068293674305], [-48.668215529432295, -5.431692946864688], [-48.743940604185745, -5.429955168793218], [-48.7448422725695, -5.429932222309161], [-48.856169329507566, -5.4268206668340015], [-48.85953345023064, -5.426695229372512], [-48.910751906197184, -5.424306882194543], [-48.917909754330374, -5.443015426333041], [-48.92449646637241, -5.458104699434546], [-48.93244818951266, -5.47252724611156], [-48.95751678984404, -5.513414551556791], [-48.9672935871658, -5.527748872796042], [-48.978418083461115, -5.541073906441214], [-48.99078586110084, -5.553264651501199], [-49.00428083266989, -5.564206755304208], [-49.040993277518766, -5.591137207681034], [-49.04199358126837, -5.591808877525125], [-49.0449508524157, -5.6004400828954815], [-49.052596023367975, -5.61700339454288], [-49.0618958614521, -5.632705595366843], [-49.07599073888006, -5.653947941312973], [-49.08574078015881, -5.667264027909461], [-49.096681255701796, -5.679630122352658], [-49.13043884882118, -5.71441318948412], [-49.16332020520525, -5.748943479350404], [-49.17533374644584, -5.760440387869986], [-49.18836648883326, -5.770779838758452], [-49.215095451970164, -5.790036540156382], [-49.22920879115088, -5.79923125320414], [-49.24412675902847, -5.807068318127937], [-49.259717825056725, -5.81347869387822], [-49.307987008292464, -5.830732342997497], [-49.32478894081705, -5.835830259954762], [-49.342010994348286, -5.839271486131205], [-49.35948853699994, -5.841023156298049], [-49.3770544945722, -5.8410685414756545], [-49.394540947674756, -5.839407208224041], [-49.41178073692955, -5.836055022769939], [-49.42860906090811, -5.831043999931583], [-49.42942815454666, -5.830755992600276], [-49.455224560605515, -5.845624601443034], [-49.47018896704073, -5.853340660464229], [-49.48581439268137, -5.859627641878355], [-49.4993747443632, -5.86366043455073], [-49.511696382868635, -5.871522368059812], [-49.52827680093569, -5.879836695319953], [-49.564425705858625, -5.8956892295022385], [-49.57489861099121, -5.899481831638367], [-49.58087346330389, -5.904794760254075], [-49.5946683692393, -5.914886167036657], [-49.60936648059508, -5.9236252557757485], [-49.62483427683264, -5.930932704492148], [-49.638511035838434, -5.935868725754119], [-49.6408405556562, -5.941255261847918], [-49.650032320836154, -5.959547613777206], [-49.6612651502401, -5.976675115573959], [-49.68173822307214, -6.00429662930025], [-49.693946389177185, -6.019045689286299], [-49.71314371182787, -6.039861974602462], [-49.7186556327079, -6.050645154014176], [-49.72727744468919, -6.06430306792359], [-49.73710256637824, -6.077131954842739], [-49.74327075320682, -6.084473174356038], [-49.747423727828185, -6.09113475512298], [-49.7578509622947, -6.106099569658196], [-49.76975578722659, -6.11993106247306], [-49.783014565879284, -6.132485679868169], [-49.797489600114446, -6.143633130462829], [-49.813030560454614, -6.153257734373361], [-49.829476047319744, -6.161259620734929], [-49.84665526723146, -6.167555761298102], [-49.86438980657703, -6.172080829523699], [-49.882495484511765, -6.174787876394357], [-49.900784265756535, -6.1756488160408125], [-49.93017680149223, -6.175541793056856], [-49.94513889664693, -6.177467965244867], [-49.962972690120324, -6.177989839382334], [-49.98077061235685, -6.1767506030447], [-50.00090028666807, -6.174345713093951], [-50.0295243093824, -6.174025025737231], [-50.041346056085786, -6.182887922144725], [-50.056396124137265, -6.1920190829393515], [-50.07227397662008, -6.1996395826536554], [-50.088826701135105, -6.205676098374641], [-50.10589488589661, -6.210070550312356], [-50.12331415495493, -6.212780658953838], [-50.14091675122668, -6.2137803505918745], [-50.15853315208723, -6.213060007390909], [-50.175993701966185, -6.2106265596246635], [-50.19313024622327, -6.206503419213194], [-50.209777750569536, -6.200730255187909], [-50.22577589043766, -6.193362613208349], [-50.24097059499525, -6.184471382731088], [-50.25521553093114, -6.174142116875782], [-50.26837351172518, -6.162474211433312], [-50.28031781882947, -6.149579950803393], [-50.29093342203715, -6.13558342992154], [-50.30011808728625, -6.120619362426186], [-50.30778336122958, -6.104831786414192], [-50.31385542308881, -6.088372680126729], [-50.3182757955889, -6.071400500787151], [-50.32100190812624, -6.0540786605691235], [-50.32200750674688, -6.0365739542987065], [-50.32128290698635, -6.019054953981525], [-50.318835087136485, -6.00169038558973], [-50.31468762104053, -5.984647503738936], [-50.308880451064226, -5.968090479929774], [-50.30055074368112, -5.94762918211665], [-50.29343800103858, -5.93228513133068], [-50.28490003041935, -5.91767744385774], [-50.27501316316421, -5.903936780057741], [-50.26386579004741, -5.891186054253795], [-50.251557571043705, -5.8795393333803645], [-50.238198544346105, -5.869100814642819], [-50.223908142600244, -5.859963891416765], [-50.184316676013715, -5.837205773953409], [-50.1616019051936, -5.826190245399442], [-50.13759013694171, -5.8165605761249255], [-50.12080161974038, -5.8107701349708805], [-50.10352027400856, -5.806657813988971], [-50.08591513502843, -5.804263874428042], [-50.06815840522461, -5.8036117542874965], [-50.05042376978805, -5.804707838235065], [-50.03288469779641, -5.80754139492915], [-50.01571274544851, -5.81208468236693], [-50.00269412491949, -5.816942970477532]]]}}, {"type": "Feature", "properties": {"nome": "EFC_eixo"}, "geometry": {"type": "LineString", "coordinates": [[-44.31092537411871, -2.620516600193444], [-44.31920567391307, -2.596413033393695], [-44.32589716487445, -2.578196001917342], [-44.35061391102421, -2.577455112517584], [-44.34859023072452, -2.568272919824895], [-44.32265721834374, -2.579602813041879], [-44.31154621483857, -2.618428602487914], [-44.30861572665643, -2.628108258261296], [-44.30638091410881, -2.637454916156337], [-44.30412912728163, -2.647333228739348], [-44.29819615774576, -2.657322650178757], [-44.29394534118765, -2.663876325801277], [-44.2935234976581, -2.668797688207247], [-44.29787747386906, -2.679000647779164], [-44.30272777659639, -2.68981954713169], [-44.30903119612555, -2.698709939003192], [-44.31612463740935, -2.707719905963682], [-44.3224999978378, -2.715792612446094], [-44.32777985189286, -2.721488271136889], [-44.33218944272922, -2.726009303387153], [-44.33641399751299, -2.730345047728377], [-44.34162011441218, -2.733221414704315], [-44.34997689648945, -2.734192537202873], [-44.3537799477446, -2.73736517887385], [-44.35491958451244, -2.740741409263862], [-44.37537360650349, -2.822570622356453], [-44.35432825306977, -2.914862192754937], [-44.34322419423449, -2.986847185272592], [-44.34557075380056, -3.045334284007517], [-44.32911919592492, -3.11112652492794], [-44.36437736335953, -3.173296762751257], [-44.41678803195481, -3.23526203166462], [-44.48737135557384, -3.327082147725803], [-44.51720533697302, -3.37049479384432], [-44.5573870256209, -3.423280566402091], [-44.5977384977575, -3.468120529203117], [-44.62064571970826, -3.507972895277228], [-44.66800463569772, -3.556239597207894], [-44.69844906130334, -3.575647301947779], [-44.75429990411686, -3.576943818953377], [-44.7960733355507, -3.565872061849936], [-44.83302603944861, -3.545815804344037], [-44.87580629254154, -3.532258104664197], [-44.91390440344247, -3.555780165088953], [-44.95833330766402, -3.583765300691506], [-45.01660009769, -3.597751164790343], [-45.090330731842, -3.584239401323953], [-45.17376636151882, -3.619989573345393], [-45.24849959479718, -3.654621014366284], [-45.34130204447681, -3.683270507977045], [-45.42438100693989, -3.698781652640813], [-45.46224589181093, -3.720305856162158], [-45.51645833227663, -3.720393817705027], [-45.54771817976809, -3.712787456642893], [-45.62639458355468, -3.694419081443916], [-45.64558898287528, -3.67186133058605], [-45.69810638334675, -3.658795422212323], [-45.73086979781039, -3.646744737210301], [-45.79279076166634, -3.652759247789632], [-45.84450756763087, -3.670211371514234], [-45.88629287754867, -3.677379460858045], [-45.91784505777005, -3.693556634861573], [-45.94582887243766, -3.708499785400661], [-45.98870198008661, -3.696603868293385], [-46.03941805271552, -3.706452395071315], [-46.08098526017771, -3.723082856012147], [-46.12410024552462, -3.751408865234652], [-46.14645792271979, -3.774637301090801], [-46.17288201721964, -3.823344622852448], [-46.19639507326397, -3.873095123039371], [-46.20136436498524, -3.906273008917169], [-46.20852944188135, -3.935301833645036], [-46.24362708824276, -3.953733271512544], [-46.25992531670487, -3.978325921141497], [-46.27391337073041, -4.006292102526031], [-46.30574117416736, -4.030824004230464], [-46.33684530146564, -4.047294228820658], [-46.36413282963299, -4.068213204421929], [-46.37752594748029, -4.095209582452977], [-46.40568489112431, -4.117955742808851], [-46.43615736244901, -4.14967737429423], [-46.44952727553449, -4.16894138609038], [-46.46324699214606, -4.18519258699014], [-46.47607653129346, -4.194636208186785], [-46.48878725154332, -4.208170756077755], [-46.50128180261422, -4.222646887302479], [-46.5277050125164, -4.244767574651012], [-46.53163851885925, -4.255213752186076], [-46.54106728415554, -4.272321716216368], [-46.56521115547069, -4.2930339246041], [-46.59921519339522, -4.321831027941269], [-46.63102809269813, -4.334685554633703], [-46.67788527282422, -4.349048054357036], [-46.70255449006716, -4.361520718445379], [-46.72460633171493, -4.378422879641821], [-46.74020853702433, -4.385179436155414], [-46.77546231649876, -4.38125076276167], [-46.80815124902821, -4.38846733960955], [-46.84080162976701, -4.395858490285711], [-46.86561380940842, -4.42717150319612], [-46.90248904454032, -4.444178935039944], [-46.92158967871768, -4.467771210370265], [-46.93478701896923, -4.474350821265777], [-46.9658333777594, -4.487371170185498], [-46.98223495911423, -4.493913421879963], [-47.00627826377357, -4.501427193099049], [-47.04773299582094, -4.506551154394617], [-47.07019044487488, -4.530909696665888], [-47.08578269388679, -4.542797365975632], [-47.09130515116699, -4.561028616115758], [-47.11645220938301, -4.556951794251474], [-47.14008937760356, -4.575354833501963], [-47.19460293660474, -4.596366075869585], [-47.20283330884261, -4.62157594245337], [-47.22880710862467, -4.635535193589334], [-47.25869654266976, -4.670846411624602], [-47.2910192567044, -4.702347999575935], [-47.31087050224033, -4.74172227117063], [-47.30219612957261, -4.759179065556003], [-47.29721749515372, -4.783979407371552], [-47.31489988808963, -4.808964690315696], [-47.34182777428277, -4.796706111936151], [-47.35111966913895, -4.801052887343437], [-47.36484187350662, -4.825855456746554], [-47.37632332737999, -4.851145267458999], [-47.3748250283777, -4.884799115601696], [-47.39369391681493, -4.906071619111762], [-47.4243331790283, -4.923553375144622], [-47.47075560843719, -4.973992762934393], [-47.49776809169971, -5.026746328040267], [-47.50497585112534, -5.056320225276854], [-47.54650804263941, -5.086339748693232], [-47.58725315532322, -5.104869644883645], [-47.61214418522494, -5.104836416070305], [-47.62547234471377, -5.092659993235015], [-47.66698920160243, -5.102027238999623], [-47.69787398638987, -5.118229465977236], [-47.71476387428314, -5.116014902775947], [-47.73206332288544, -5.135857986987679], [-47.75978086903167, -5.124011759323253], [-47.77116079123591, -5.138001691392385], [-47.80704572500431, -5.13488809814235], [-47.82249389782378, -5.111077204520771], [-47.83785971204573, -5.121559585100823], [-47.86611127775614, -5.146610733374767], [-47.90266199520844, -5.152353672261072], [-47.93116286350968, -5.15758015074663], [-47.95183285619704, -5.172018557770693], [-47.98103572127896, -5.173836789593578], [-48.0120260199339, -5.162025445764986], [-48.06450300248797, -5.174006113769669], [-48.13178344647396, -5.162301021986831], [-48.19552001708388, -5.165162956166754], [-48.26831466788448, -5.159301303565889], [-48.31779597798327, -5.14850242105098], [-48.3849222385833, -5.148471530941161], [-48.43937690505258, -5.155474026119722], [-48.49004763915801, -5.163080692910677], [-48.51757642397726, -5.182523433693401], [-48.56707385338207, -5.21875003831997], [-48.62561959878262, -5.24074869622209], [-48.66407503810359, -5.252857881041254], [-48.73980011285704, -5.251119595766112], [-48.85112716979511, -5.248007132653776], [-48.95560732923167, -5.243133731341506], [-49.04346751740116, -5.283391380215682], [-49.0810007693069, -5.318020525978663], [-49.07455504499649, -5.349939844689541], [-49.08580679730585, -5.37935201795092], [-49.11087539763722, -5.42024566328832], [-49.1475878424861, -5.447182638526], [-49.18555083486514, -5.46251337274999], [-49.19980334522602, -5.492197533973691], [-49.21182286849504, -5.534176782323697], [-49.225917745923, -5.555422706429322], [-49.2602696492747, -5.590825690382481], [-49.2937394281641, -5.625981420000508], [-49.32046839130101, -5.64524298628919], [-49.36873757453675, -5.662501726685244], [-49.41919891426976, -5.644753135525836], [-49.47239876288293, -5.643525416541301], [-49.50447079430705, -5.667420242389818], [-49.54529358651342, -5.690956390033495], [-49.5834425669217, -5.693079745084846], [-49.60075247253678, -5.716281640538328], [-49.63690137745971, -5.732138776658383], [-49.66895425600198, -5.741415518059188], [-49.69409437503858, -5.766019139231167], [-49.72004295582168, -5.758827214537348], [-49.7381630077978, -5.778613618748831], [-49.77483786425822, -5.809424155590737], [-49.79091050101565, -5.836014344815927], [-49.80588248766718, -5.870639307041612], [-49.82635556049922, -5.898266137511218], [-49.85349313496072, -5.927698554995216], [-49.87210044555697, -5.944171775810532], [-49.87497751501608, -5.962574688008823], [-49.88928483543963, -5.979606340165746], [-49.90012626941523, -5.996999741781284], [-49.94516785193307, -5.99683568353997], [-49.95933521225923, -5.999376969856806], [-49.98913587913764, -5.995815508198581], [-50.04036765993488, -5.995241345489846], [-50.07041722595225, -5.982311171362111], [-50.09442899420414, -5.991937960198219], [-50.13402046079067, -6.014689699249451], [-50.14235016817379, -6.035148483818738]]}}]}