{"type": "FeatureCollection", "features": [{"type": "Feature", "properties": {"source": "ana", "station_id": "23800495", "nome": "RIO TOCANTINS - SÃO SEBASTIÃO DO TO", "lat": -5.2544, "lon": -48.1983, "municipio": "SÃO SEBASTIÃO DO TO"}, "geometry": {"type": "Point", "coordinates": [-48.1983, -5.2544]}}, {"type": "Feature", "properties": {"source": "ana", "station_id": "29050000", "nome": "MARABÁ", "lat": -5.3386, "lon": -49.1244, "municipio": "MARABÁ"}, "geometry": {"type": "Point", "coordinates": [-49.1244, -5.3386]}}, {"type": "Feature", "properties": {"source": "ana", "station_id": "29100000", "nome": "FAZENDA ALEGRIA", "lat": -5.4867, "lon": -49.2214, "municipio": "MARABÁ"}, "geometry": {"type": "Point", "coordinates": [-49.2214, -5.4867]}}, {"type": "Feature", "properties": {"source": "ana", "station_id": "29110000", "nome": "UHE TUCURUÍ RIO ITACAIÚNAS", "lat": -5.4886, "lon": -49.2233, "municipio": "MARABÁ"}, "geometry": {"type": "Point", "coordinates": [-49.2233, -5.4886]}}, {"type": "Feature", "properties": {"source": "ana", "station_id": "33380010", "nome": "ARATOÍ GRANDE", "lat": -3.7722, "lon": -45.2181, "municipio": "BELA VISTA DO MARAN"}, "geometry": {"type": "Point", "coordinates": [-45.2181, -3.7722]}}, {"type": "Feature", "properties": {"source": "ana", "station_id": "33690100", "nome": "ITAPECURU-MIRIM", "lat": -3.3922, "lon": -44.3619, "municipio": "ITAPECURU MIRIM"}, "geometry": {"type": "Point", "coordinates": [-44.3619, -3.3922]}}, {"type": "Feature", "properties": {"source": "bndmet", "station_id": "A238", "nome": "BURITICUPÚ", "lat": -4.32055554, "lon": -46.44944444, "municipio": null}, "geometry": {"type": "Point", "coordinates": [-46.44944444, -4.32055554]}}, {"type": "Feature", "properties": {"source": "bndmet", "station_id": "D6301", "nome": "ARATOÍ GRANDE", "lat": -3.7722, "lon": -45.2181, "municipio": null}, "geometry": {"type": "Point", "coordinates": [-45.2181, -3.7722]}}, {"type": "Feature", "properties": {"source": "bndmet", "station_id": "82281", "nome": "SAO LUÍS - AEROPORTO", "lat": -2.6, "lon": -44.22999999, "municipio": null}, "geometry": {"type": "Point", "coordinates": [-44.22999999, -2.6]}}, {"type": "Feature", "properties": {"source": "bndmet", "station_id": "82280", "nome": "SÃO LUIS", "lat": -2.52666666, "lon": -44.21361111, "municipio": null}, "geometry": {"type": "Point", "coordinates": [-44.21361111, -2.52666666]}}, {"type": "Feature", "properties": {"source": "bndmet", "station_id": "A203", "nome": "SÃO LUIS", "lat": -2.52666666, "lon": -44.21361111, "municipio": null}, "geometry": {"type": "Point", "coordinates": [-44.21361111, -2.52666666]}}, {"type": "Feature", "properties": {"source": "bndmet", "station_id": "82562", "nome": "MARABA", "lat": -5.36611111, "lon": -49.12527777, "municipio": null}, "geometry": {"type": "Point", "coordinates": [-49.12527777, -5.36611111]}}, {"type": "Feature", "properties": {"source": "bndmet", "station_id": "82563", "nome": "MARABÁ", "lat": -5.37, "lon": -49.14, "municipio": null}, "geometry": {"type": "Point", "coordinates": [-49.14, -5.37]}}, {"type": "Feature", "properties": {"source": "bndmet", "station_id": "D6190", "nome": "UHE TUCURUÍ MONTANTE 1", "lat": -5.3497, "lon": -48.8806, "municipio": null}, "geometry": {"type": "Point", "coordinates": [-48.8806, -5.3497]}}, {"type": "Feature", "properties": {"source": "bndmet", "station_id": "A240", "nome": "MARABA", "lat": -5.36638888, "lon": -49.05111111, "municipio": null}, "geometry": {"type": "Point", "coordinates": [-49.05111111, -5.36638888]}}, {"type": "Feature", "properties": {"source": "bndmet", "station_id": "82567", "nome": "CARAJÁS", "lat": -6.12, "lon": -50.0, "municipio": null}, "geometry": {"type": "Point", "coordinates": [-50.0, -6.12]}}, {"type": "Feature", "properties": {"source": "bndmet", "station_id": "D6169", "nome": "MARABÁ", "lat": -5.3386, "lon": -49.1244, "municipio": null}, "geometry": {"type": "Point", "coordinates": [-49.1244, -5.3386]}}, {"type": "Feature", "properties": {"source": "bndmet", "station_id": "D6170", "nome": "UHE TUCURUÍ RIO ITACAIÚNAS", "lat": -5.4886, "lon": -49.2233, "municipio": null}, "geometry": {"type": "Point", "coordinates": [-49.2233, -5.4886]}}, {"type": "Feature", "properties": {"source": "bndmet", "station_id": "D6168", "nome": "FAZENDA ALEGRIA", "lat": -5.4867, "lon": -49.2214, "municipio": null}, "geometry": {"type": "Point", "coordinates": [-49.2214, -5.4867]}}, {"type": "Feature", "properties": {"source": "bndmet", "station_id": "D6182", "nome": "PARAUAPEBAS", "lat": -6.0914, "lon": -49.9044, "municipio": null}, "geometry": {"type": "Point", "coordinates": [-49.9044, -6.0914]}}, {"type": "Feature", "properties": {"source": "bndmet", "station_id": "A230", "nome": "SERRA DOS CARAJÁS", "lat": -6.07749999, "lon": -50.14222221, "municipio": null}, "geometry": {"type": "Point", "coordinates": [-50.14222221, -6.07749999]}}]}